{
"type": "FeatureCollection",
"name": "solos_ipatinga",
"features": [
{"type":"Feature","properties":{"ogc_fid":3201,"objectid_1":3530,"um_sequenc":"LAd3","shape_leng":3.57804359438,"shape_area":0.070729369451000002,"legenda":"Latossolo amarelo distrófico"},"geometry":{"type":"MultiPolygon","coordinates":[[[[-42.562063079999973,-19.400819039999988],[-42.561091079999983,-19.400994],[-42.56062812,-19.40115096],[-42.56016588,-19.401237990000027],[-42.55982316,-19.40155704],[-42.55957583999998,-19.401992010000015],[-42.559304039999972,-19.40245002],[-42.559202159999984,-19.402910010000028],[-42.559125119999976,-19.403345969999975],[-42.559022879999986,-19.403829],[-42.558921,-19.404264959999978],[-42.55900884,-19.405141019999974],[-42.55902792,-19.405578960000014],[-42.55895016,-19.406061],[-42.558873119999987,-19.406498039999974],[-42.55884396,-19.406934990000025],[-42.558766919999982,-19.407372029999976],[-42.558543,-19.407852989999981],[-42.558343920000027,-19.408335029999989],[-42.558194160000028,-19.40877099],[-42.55794612,-19.40920596],[-42.557475959999977,-19.41007599],[-42.557277960000022,-19.410489],[-42.557127120000018,-19.41099399],[-42.557024879999972,-19.411430040000027],[-42.55689888,-19.411866990000021],[-42.556578839999986,-19.412278019999974],[-42.556259880000027,-19.412596979999989],[-42.556038119999982,-19.412987040000019],[-42.55571808000002,-19.41337503],[-42.555373920000022,-19.413763019999976],[-42.555030120000026,-19.414197],[-42.554638080000018,-19.414539],[-42.554174040000021,-19.414856970000017],[-42.55307208,-19.415744010000026],[-42.552705960000026,-19.41601698],[-42.55221816,-19.416265020000026],[-42.551802,-19.416513959999975],[-42.55148304,-19.416879989999984],[-42.55138116,-19.417338990000019],[-42.551255159999982,-19.417822020000017],[-42.551031959999989,-19.418234040000016],[-42.550665120000019,-19.418507009999985],[-42.5502,-19.41884703],[-42.549784919999979,-19.41909696],[-42.549345,-19.41939198],[-42.54890616,-19.419595019999974],[-42.54851484,-19.419867],[-42.547876920000022,-19.420506],[-42.54755796,-19.420848],[-42.547262040000021,-19.42128297],[-42.54711192000002,-19.421741970000028],[-42.54691212,-19.42222302],[-42.546809880000012,-19.422729],[-42.546708,-19.42316496],[-42.54665508,-19.42362504],[-42.546697919999986,-19.42415496000001],[-42.54679008,-19.424616029999981],[-42.54688116,-19.425123989999975],[-42.54702192000002,-19.425609],[-42.54725808,-19.42620903],[-42.547398840000028,-19.426694039999973],[-42.547538159999988,-19.42722504],[-42.547655159999977,-19.427663970000026],[-42.54783984,-19.428540030000022],[-42.547956839999983,-19.42897896],[-42.548000039999977,-19.429462979999983],[-42.54801912,-19.42992297],[-42.548014079999973,-19.430384039999979],[-42.54788808,-19.43082],[-42.54773796,-19.431255959999987],[-42.547392,-19.431804960000022],[-42.547145039999975,-19.43224002],[-42.54684984,-19.432583009999973],[-42.546651119999979,-19.433017979999988],[-42.54625116,-19.434119039999985],[-42.54609996,-19.434647970000015],[-42.54594984,-19.435084019999977],[-42.545751119999977,-19.43551899],[-42.54545484,-19.43593101],[-42.54503904,-19.436248980000016],[-42.544695960000013,-19.436568029999989],[-42.544352880000019,-19.436864039999989],[-42.54395122,-19.437120530000016],[-42.54352731,-19.43733233],[-42.54290964,-19.437774110000021],[-42.542271910000011,-19.438002849999975],[-42.54199624,-19.437908890000017],[-42.541277060000027,-19.43779558],[-42.540772440000012,-19.437873720000027],[-42.540326479999976,-19.43800904],[-42.54013425,-19.438093079999987],[-42.53981361000001,-19.438270620000026],[-42.5393742,-19.438692409999987],[-42.53877488,-19.439231399999983],[-42.53823631,-19.439780610000014],[-42.538044739999975,-19.439988490000019],[-42.537897550000025,-19.44018208],[-42.53782456,-19.440412700000024],[-42.53782593,-19.44062383],[-42.537770939999973,-19.441024140000025],[-42.537745500000028,-19.441297640000016],[-42.537729249999984,-19.441596010000012],[-42.537778600000024,-19.441807639999979],[-42.537993659999984,-19.442229469999972],[-42.538179319999983,-19.442591680000021],[-42.538267430000019,-19.442859339999984],[-42.538455740000018,-19.44308110999998],[-42.538782809999987,-19.4432809],[-42.539185490000023,-19.443627170000013],[-42.539339050000024,-19.44395125],[-42.53953365000001,-19.44440124],[-42.53963237,-19.44463527],[-42.539688309999974,-19.44467991],[-42.54151582999998,-19.44468944],[-42.54381195000002,-19.44668307],[-42.544080109999982,-19.44689681],[-42.544156250000015,-19.447043029999975],[-42.544235,-19.447188700000027],[-42.54416239,-19.447359670000026],[-42.54403083,-19.447586109999975],[-42.5437771,-19.44798233],[-42.54362181,-19.44816124],[-42.54351594000002,-19.448238460000027],[-42.543389680000018,-19.448274579999975],[-42.543264070000021,-19.448288699999978],[-42.543090689999985,-19.448314040000014],[-42.54300293,-19.448355559999982],[-42.542942480000022,-19.448391220000019],[-42.5427866,-19.448511470000028],[-42.542668269999979,-19.44866226],[-42.542543130000013,-19.448763489999976],[-42.542446989999974,-19.448818879999976],[-42.542363169999987,-19.44888026000001],[-42.542305769999984,-19.448989579999989],[-42.542237339999986,-19.44906454],[-42.54213503,-19.449110440000027],[-42.54196085,-19.44920122000002],[-42.54188031000001,-19.449256030000015],[-42.541807370000015,-19.449364880000019],[-42.54178178,-19.449463760000015],[-42.541770629999974,-19.449673229999974],[-42.54180236000002,-19.44990759],[-42.541896650000012,-19.450346879999984],[-42.54193095,-19.450735899999984],[-42.541866649999974,-19.45096558],[-42.54110834,-19.45178611],[-42.54107664999998,-19.451780830000018],[-42.54089152,-19.45174241],[-42.540554709999981,-19.45175458],[-42.540157860000022,-19.45172815],[-42.539735329999985,-19.451626770000018],[-42.539319550000016,-19.451618129999986],[-42.53907264999998,-19.45163765],[-42.538931709999986,-19.451674589999982],[-42.53878054,-19.451754259999973],[-42.53866975,-19.45191410000001],[-42.538626799999975,-19.452043479999986],[-42.538508470000011,-19.452193029999989],[-42.538469369999973,-19.45227107],[-42.53836923,-19.45244413],[-42.538319269999988,-19.452611540000021],[-42.538225940000018,-19.452810030000023],[-42.53808534,-19.453013399999975],[-42.537907229999973,-19.45319652],[-42.537699260000011,-19.45334105],[-42.537568570000019,-19.453408089999982],[-42.537427690000015,-19.453464610000026],[-42.537254140000016,-19.453533119999975],[-42.537106279999989,-19.453630569999973],[-42.53690536,-19.453811280000025],[-42.53665085,-19.454082379999988],[-42.536385779999989,-19.454381520000027],[-42.536237879999987,-19.454544],[-42.53605484000002,-19.45462913],[-42.535851760000014,-19.45465614],[-42.53565991,-19.454676600000028],[-42.53553853,-19.454717879999976],[-42.5351698,-19.454936569999973],[-42.534571700000015,-19.455294429999981],[-42.53403437999998,-19.455697569999984],[-42.533617030000016,-19.45605579],[-42.533182459999978,-19.456441050000024],[-42.53291679,-19.456615409999984],[-42.532617140000013,-19.456768239999974],[-42.53229352,-19.456976110000028],[-42.532121710000013,-19.457110090000015],[-42.53141635999998,-19.457561339999984],[-42.5310781,-19.457731149999972],[-42.530688559999987,-19.45800184],[-42.529842429999974,-19.458502179999982],[-42.529608090000011,-19.45862875],[-42.529513660000021,-19.458724669999981],[-42.529406419999987,-19.45886378],[-42.52929982,-19.45907803],[-42.529102239999986,-19.459477400000026],[-42.528739719999976,-19.45987878],[-42.528449630000011,-19.460093079999979],[-42.52772982,-19.46013327999998],[-42.527179120000028,-19.46016283],[-42.526736369999981,-19.460170179999977],[-42.526585800000021,-19.460136579999983],[-42.52644668,-19.46005183],[-42.526289449999979,-19.459901549999984],[-42.525932940000018,-19.459514430000013],[-42.525721350000026,-19.45934775],[-42.525516610000011,-19.459226960000024],[-42.525273449999986,-19.459101120000014],[-42.52509075,-19.4590437],[-42.52487960000002,-19.458983779999983],[-42.524611629999981,-19.45897699],[-42.524456390000012,-19.459064720000015],[-42.52318893,-19.45986191999998],[-42.523115299999972,-19.45987648],[-42.523012189999974,-19.459873070000015],[-42.522918370000014,-19.459855520000019],[-42.522778570000014,-19.459887490000028],[-42.522659659999988,-19.459921950000023],[-42.522511440000017,-19.459910289999982],[-42.522326210000017,-19.4598785],[-42.52223253,-19.4598742],[-42.522183770000026,-19.45989254],[-42.522124229999974,-19.459935859999973],[-42.522037290000014,-19.460026379999988],[-42.52195889,-19.46011051],[-42.521840919999988,-19.460218129999987],[-42.521619699999974,-19.460402069999986],[-42.521507349999979,-19.460586299999989],[-42.52143235,-19.46083194],[-42.521334700000011,-19.46110797],[-42.52129478,-19.46121653],[-42.52122972,-19.461263060000022],[-42.52110337,-19.461367489999986],[-42.520949299999984,-19.46141166000001],[-42.520696980000025,-19.461492940000028],[-42.520501560000014,-19.461626099999989],[-42.520390669999983,-19.461743749999982],[-42.52032499,-19.461872579999977],[-42.520261819999973,-19.46200158],[-42.520116130000019,-19.462183429999982],[-42.51948471999998,-19.462705280000023],[-42.51929157,-19.46280485],[-42.519105729999978,-19.462778609999987],[-42.518694209999978,-19.46272439],[-42.518499420000012,-19.46275569],[-42.518034170000021,-19.46285307],[-42.517700629999979,-19.462952289999976],[-42.517384320000019,-19.46311377],[-42.51707847,-19.463250800000026],[-42.516363090000027,-19.46348178],[-42.516115669999976,-19.463553769999976],[-42.515763559999982,-19.463628009999979],[-42.51537457,-19.4637495],[-42.51526794,-19.463814389999982],[-42.515203840000027,-19.46388062],[-42.51511324,-19.463966130000017],[-42.51490414,-19.464145439999982],[-42.51471211,-19.464303130000019],[-42.51452372,-19.464474820000021],[-42.51446223,-19.464526200000023],[-42.51430588,-19.46458522],[-42.514137530000028,-19.46463768000001],[-42.51405422,-19.464686079999979],[-42.513970560000018,-19.46473419],[-42.51383418,-19.4648338],[-42.51370356000001,-19.464977710000028],[-42.51366699,-19.465046930000028],[-42.51362364,-19.465139780000015],[-42.513576390000026,-19.465283880000015],[-42.51346401,-19.465437899999984],[-42.51336813,-19.465648359999989],[-42.51334298,-19.46583117],[-42.513369029999978,-19.465939839999976],[-42.513439440000013,-19.466049989999988],[-42.513703220000025,-19.466319699999985],[-42.51408605,-19.466682849999984],[-42.514406440000016,-19.466969329999984],[-42.514593530000013,-19.46719908],[-42.5146454,-19.467387640000027],[-42.514685639999982,-19.467713020000019],[-42.514857230000018,-19.46845801],[-42.514876969999989,-19.468742350000014],[-42.514827430000025,-19.46897135],[-42.51473123,-19.46915988],[-42.51466618,-19.469409180000014],[-42.514664900000014,-19.469596299999978],[-42.514733799999988,-19.469671829999982],[-42.514904839999986,-19.46975347],[-42.51507848,-19.46980577],[-42.515225069999985,-19.46990544],[-42.515278439999975,-19.470041690000016],[-42.515358030000016,-19.47016943],[-42.51541289,-19.470264680000014],[-42.515482940000027,-19.470301249999977],[-42.515594239999984,-19.470319589999974],[-42.515651470000023,-19.47033516],[-42.515689109999983,-19.47037308],[-42.515729350000015,-19.47043929],[-42.51578975000001,-19.470549310000024],[-42.515837299999987,-19.47068742],[-42.515839840000012,-19.47075215000001],[-42.515826479999987,-19.470853869999985],[-42.515769990000024,-19.470935629999985],[-42.515704910000011,-19.470992490000015],[-42.51560379,-19.47102910000001],[-42.515287179999973,-19.471144190000018],[-42.515198030000022,-19.471245090000025],[-42.515171520000024,-19.47147265000001],[-42.51512434,-19.471625659999972],[-42.515009099999986,-19.47180024],[-42.514698730000021,-19.472097019999978],[-42.513012450000019,-19.473740309999982],[-42.51237537999998,-19.474496929999987],[-42.512035200000014,-19.47499989],[-42.51144073,-19.47513945999998],[-42.51120462,-19.475232179999978],[-42.510991629999978,-19.47520205],[-42.51086346,-19.475088229999983],[-42.510801379999975,-19.475037289999989],[-42.510708860000022,-19.475027],[-42.51030755,-19.475131760000011],[-42.510080930000015,-19.47516091],[-42.509784930000023,-19.47510043],[-42.508510030000025,-19.474680579999983],[-42.507893309999986,-19.47448333],[-42.507747830000028,-19.474485370000025],[-42.507222230000025,-19.474560129999986],[-42.50648236,-19.47469644],[-42.505917669999974,-19.47480711999998],[-42.505877950000013,-19.47482758000001],[-42.50581028,-19.47488425],[-42.50572703,-19.47499896],[-42.50553487000002,-19.475107130000026],[-42.505350299999975,-19.475227930000017],[-42.504872350000028,-19.475359739999988],[-42.50440498,-19.475561570000025],[-42.503878699999973,-19.47557036],[-42.503423039999973,-19.475648009999986],[-42.503151960000025,-19.47601296],[-42.502929839999979,-19.476403020000021],[-42.502730040000017,-19.47686103],[-42.50241,-19.47727197],[-42.502115160000017,-19.477638],[-42.50172312,-19.477955969999982],[-42.50135591999998,-19.478251979999982],[-42.50066904,-19.478844],[-42.500043,-19.47947697],[-42.499509120000027,-19.47987801],[-42.499000079999973,-19.480014],[-42.498538919999987,-19.48019697],[-42.498126,-19.48044897],[-42.497616960000016,-19.480723020000028],[-42.497276039999974,-19.48102101],[-42.496886879999977,-19.481410980000021],[-42.49611,-19.482098039999983],[-42.49524384,-19.48246902],[-42.494965920000027,-19.48266099],[-42.49455192,-19.482975],[-42.494352839999976,-19.483282980000013],[-42.494289120000019,-19.48389597],[-42.49431288,-19.484490960000016],[-42.494352119999974,-19.485054989999981],[-42.49438992,-19.485582029999989],[-42.49445004,-19.48602402],[-42.494496840000011,-19.486645020000026],[-42.49456812,-19.48708197000002],[-42.494712839999977,-19.487519010000028],[-42.494905080000024,-19.488002040000026],[-42.495194159999983,-19.488554009999973],[-42.49548396,-19.488899969999977],[-42.49591884,-19.489292009999986],[-42.496329960000025,-19.489614029999984],[-42.49674216,-19.48982202000002],[-42.497273880000023,-19.490007960000014],[-42.49773396,-19.49016996],[-42.498218880000024,-19.490263019999986],[-42.49867896,-19.490355990000012],[-42.499235880000015,-19.49035797],[-42.499721159999979,-19.490290019999975],[-42.500229839999975,-19.49022198],[-42.500810160000015,-19.490264009999976],[-42.50127312,-19.490175990000012],[-42.50178288,-19.490112],[-42.50224296,-19.49020902],[-42.50271204,-19.49023503],[-42.503096159999984,-19.49031297],[-42.503555160000019,-19.490464980000013],[-42.503961960000026,-19.490639040000019],[-42.504981120000025,-19.49114097],[-42.505669080000018,-19.49141799],[-42.50654784,-19.491678990000025],[-42.507519119999984,-19.49168898],[-42.507979920000025,-19.491715979999981],[-42.508537919999981,-19.491722009999989],[-42.50902284,-19.49184198],[-42.50953188,-19.491847020000023],[-42.509994119999988,-19.491828030000022],[-42.510456,-19.491764040000021],[-42.510942,-19.491698970000016],[-42.511501080000016,-19.491659009999978],[-42.512108039999987,-19.491618959999983],[-42.512672160000022,-19.49154804],[-42.51334212,-19.49149097999998],[-42.51395592,-19.491407009999989],[-42.514490879999983,-19.49125104],[-42.514953839999976,-19.491163019999988],[-42.515415,-19.49112198],[-42.515901,-19.491127020000022],[-42.516362160000028,-19.49115402000001],[-42.516846,-19.491228],[-42.517379160000019,-19.491393959999982],[-42.51783888,-19.49149097999998],[-42.51832416000002,-19.491518970000016],[-42.51878496,-19.491569009999978],[-42.51931811999998,-19.491689969999982],[-42.51985092000001,-19.491764040000021],[-42.520457159999978,-19.491839009999978],[-42.522180119999973,-19.49185602],[-42.522640920000015,-19.49190597],[-42.523319160000028,-19.492028010000013],[-42.523828920000028,-19.492079040000021],[-42.524289,-19.49217597],[-42.52474908,-19.49231898],[-42.525329039999974,-19.492507980000028],[-42.525812879999989,-19.492674029999989],[-42.52624812,-19.492885979999983],[-42.52680288,-19.49312097],[-42.527358,-19.493425979999984],[-42.527768040000012,-19.49370597],[-42.528129120000017,-19.493985959999975],[-42.52851396,-19.49431203],[-42.528922920000014,-19.49466203999998],[-42.52923504,-19.49498703],[-42.52954716,-19.495358010000018],[-42.53026608,-19.496148029999972],[-42.530699879999986,-19.49645196],[-42.531085080000025,-19.49675499],[-42.531519960000026,-19.496988989999977],[-42.53185584,-19.497292019999975],[-42.53219316000002,-19.49761701],[-42.53269788,-19.498037039999986],[-42.53310792000002,-19.49827104000002],[-42.53369004000001,-19.498300019999988],[-42.534370079999974,-19.498329],[-42.53536512,-19.498338989999979],[-42.535850040000014,-19.498390019999988],[-42.536358,-19.498533029999976],[-42.536818079999989,-19.498698],[-42.53722704,-19.499002019999978],[-42.537564,-19.499303970000028],[-42.537924,-19.499652990000016],[-42.53828507999998,-19.499956020000013],[-42.53862204,-19.50025797],[-42.539060880000022,-19.50074496000002],[-42.53993712,-19.50230799000002],[-42.540131159999987,-19.502790030000028],[-42.540276960000028,-19.50325002],[-42.540400079999984,-19.503779039999984],[-42.540473159999976,-19.504261980000024],[-42.540498,-19.504699019999975],[-42.54037704000001,-19.505205],[-42.540233039999976,-19.505664990000014],[-42.540063120000013,-19.506148020000012],[-42.539846039999986,-19.506609],[-42.53958,-19.507092030000024],[-42.539361840000026,-19.50755202],[-42.539119920000019,-19.508013],[-42.53895108,-19.508427],[-42.538732919999973,-19.508841],[-42.538564080000015,-19.509278040000027],[-42.538419,-19.50971499000002],[-42.538275,-19.510221960000024],[-42.538129920000017,-19.510750980000012],[-42.538057920000028,-19.511210969999979],[-42.538131,-19.511694],[-42.53842296,-19.512107010000022],[-42.538763159999974,-19.512429030000021],[-42.539223960000015,-19.51268103000001],[-42.539734080000017,-19.512773009999989],[-42.54031584,-19.512818009999989],[-42.54082488,-19.51293204000001],[-42.541431839999973,-19.51297704000001],[-42.542523,-19.51297596],[-42.54300791999998,-19.512906030000011],[-42.543516959999977,-19.512813960000017],[-42.544026,-19.512629010000012],[-42.544608120000021,-19.51239798],[-42.54526296,-19.512305009999977],[-42.545820960000015,-19.512396990000013],[-42.546331080000016,-19.51253397],[-42.54679116,-19.512486990000014],[-42.54730092,-19.512325980000014],[-42.547785120000015,-19.512209970000015],[-42.548271119999981,-19.512278009999989],[-42.54882912,-19.512485009999978],[-42.549435,-19.51243803],[-42.549846839999987,-19.512183960000016],[-42.55023491999998,-19.511908020000021],[-42.550768080000012,-19.51156197],[-42.551130960000023,-19.511262],[-42.55159212,-19.51096302000002],[-42.552075960000025,-19.51070904],[-42.552513,-19.51050204],[-42.553263959999981,-19.510201979999977],[-42.553846080000028,-19.510200989999987],[-42.55428311999998,-19.510430040000017],[-42.55457508,-19.510775009999975],[-42.55476984,-19.511256960000026],[-42.55496388,-19.511694],[-42.555134880000026,-19.512131039999986],[-42.555328920000022,-19.51254504000002],[-42.55542684,-19.513050029999988],[-42.555525120000027,-19.513510020000012],[-42.555719880000026,-19.514177010000026],[-42.555915,-19.514682989999983],[-42.556110120000028,-19.515141990000018],[-42.556329,-19.515579030000026],[-42.556619880000028,-19.515947040000015],[-42.55696008000001,-19.51626798],[-42.557373,-19.51659],[-42.557762159999982,-19.516887989999987],[-42.55844184,-19.51732404],[-42.558999840000013,-19.51764498],[-42.55938792,-19.517897969999979],[-42.559873919999973,-19.51812702],[-42.56035884,-19.518309989999977],[-42.56079588,-19.51849404],[-42.56133011999998,-19.518677009999976],[-42.561790920000021,-19.518883019999976],[-42.562253160000012,-19.519044029999975],[-42.56271396,-19.519227],[-42.563198880000016,-19.51943301],[-42.56361216,-19.519686],[-42.56404884,-19.519846019999989],[-42.564849840000022,-19.52007498],[-42.56538408,-19.520235],[-42.56589312,-19.520395020000024],[-42.566573160000019,-19.520555039999977],[-42.567131159999974,-19.52069301],[-42.567591960000016,-19.520853030000012],[-42.56812584,-19.521036],[-42.568611120000014,-19.521172980000017],[-42.569048160000023,-19.52135703],[-42.569484839999973,-19.52156304],[-42.569921879999981,-19.521722969999985],[-42.570505079999975,-19.521907020000015],[-42.57111096,-19.521837],[-42.57123084,-19.52139996],[-42.571206,-19.520917020000013],[-42.571132920000025,-19.52047998],[-42.571010880000017,-19.52001998999998],[-42.570671039999979,-19.519697969999982],[-42.570087839999985,-19.51944597],[-42.569457119999981,-19.51919397],[-42.56892288,-19.51898796],[-42.568341120000014,-19.518804989999978],[-42.56766108,-19.51862202],[-42.566739120000022,-19.51853103000002],[-42.566204879999987,-19.51837101000001],[-42.565671,-19.51782003],[-42.56579088,-19.517382989999987],[-42.566009039999983,-19.51699104],[-42.56642088000001,-19.51662303],[-42.56673588000001,-19.516276979999986],[-42.567026039999973,-19.51584003],[-42.567292080000016,-19.515471030000015],[-42.56755812,-19.51505702999998],[-42.567824879999989,-19.51468902],[-42.568139159999987,-19.514181959999974],[-42.56842896,-19.51369902],[-42.568670880000013,-19.51326099],[-42.569033040000022,-19.51222599],[-42.569154,-19.51174296],[-42.569298,-19.511236979999978],[-42.56937108,-19.510776990000011],[-42.56949096,-19.51027002],[-42.569952119999982,-19.510178040000028],[-42.57051012,-19.510245989999987],[-42.570921960000021,-19.510497989999976],[-42.57145692,-19.510865009999975],[-42.571748160000027,-19.511255969999979],[-42.571991879999985,-19.511784990000024],[-42.572148840000011,-19.512291960000027],[-42.57289296,-19.51241904],[-42.57337392,-19.512534959999982],[-42.573816,-19.512659970000016],[-42.574285079999981,-19.51288704000001],[-42.574698,-19.513077029999977],[-42.575150880000024,-19.513287],[-42.575842079999973,-19.513464030000023],[-42.576354,-19.513641959999973],[-42.576834959999985,-19.513900980000017],[-42.57736416,-19.514207969999973],[-42.57779688,-19.514420009999981],[-42.578304119999984,-19.514565],[-42.57890712,-19.514781],[-42.579390960000012,-19.514787029999979],[-42.57985284,-19.514701979999984],[-42.58031616,-19.514592989999983],[-42.58077984,-19.514369970000018],[-42.581221920000019,-19.514031030000012],[-42.58171188,-19.513670040000022],[-42.58210392,-19.513422],[-42.582692160000022,-19.513040040000021],[-42.58320587999998,-19.512678960000017],[-42.583622040000023,-19.512477989999979],[-42.58418616,-19.512048960000016],[-42.58460304,-19.51175601],[-42.585067079999988,-19.511532],[-42.585554880000018,-19.51128603],[-42.58631412,-19.510859970000013],[-42.586729919999982,-19.51061202],[-42.587075159999983,-19.510248960000013],[-42.58746792,-19.50991002],[-42.587764919999984,-19.509499979999987],[-42.58794888,-19.50878601],[-42.588132120000012,-19.50821199],[-42.588528119999978,-19.50784704],[-42.58887984,-19.50756399],[-42.589321919999975,-19.50707502],[-42.58998287999998,-19.506338009999979],[-42.590507039999977,-19.505937959999983],[-42.591015,-19.505591009999989],[-42.591654,-19.50513903],[-42.59220912,-19.504774979999979],[-42.593034960000011,-19.504396980000024],[-42.593370839999977,-19.504087019999986],[-42.59364408,-19.50370596],[-42.59393208,-19.503433980000011],[-42.594602039999984,-19.502658],[-42.59483208,-19.502378009999973],[-42.594986160000019,-19.50185196000001],[-42.595089840000014,-19.501370010000016],[-42.59532708,-19.500690959999986],[-42.595554960000015,-19.49991201],[-42.595827840000027,-19.49913297],[-42.596011079999982,-19.498390019999988],[-42.59633004,-19.498069980000025],[-42.596651160000022,-19.497544020000021],[-42.596970839999983,-19.49717898],[-42.597315,-19.496744009999986],[-42.597610920000022,-19.496332979999977],[-42.597929879999981,-19.495944],[-42.59822508000002,-19.495602],[-42.598568880000016,-19.49523696],[-42.598960920000025,-19.494918],[-42.599377080000011,-19.494600030000015],[-42.59979216,-19.494372960000021],[-42.600206879999973,-19.49417001],[-42.60076704,-19.49396796000002],[-42.601254120000021,-19.493834040000024],[-42.60166992,-19.493561969999973],[-42.601941,-19.493150039999989],[-42.60231108,-19.492623990000027],[-42.602558040000019,-19.49223501],[-42.60285288,-19.49186898],[-42.60319704,-19.491480990000014],[-42.60327408,-19.491289020000011],[-42.603370919999975,-19.49104503],[-42.603400079999972,-19.490585039999985],[-42.603284159999987,-19.490054040000018],[-42.602996879999978,-19.48968297],[-42.602586840000015,-19.48938003],[-42.60217788,-19.489100039999983],[-42.601840919999972,-19.488798],[-42.60150504,-19.488426030000028],[-42.60133908,-19.48800996],[-42.601271039999972,-19.487526030000026],[-42.601106159999972,-19.48706397],[-42.601014,-19.486626030000025],[-42.600726,-19.486232009999981],[-42.600341160000028,-19.485974969999972],[-42.59993112,-19.48569498],[-42.59949696000001,-19.485437040000022],[-42.599036880000028,-19.485295020000024],[-42.59865204,-19.48496904000001],[-42.598510920000024,-19.48450698],[-42.598587959999975,-19.48407003],[-42.598643040000013,-19.48351796999998],[-42.598658160000014,-19.482067980000011],[-42.598634039999979,-19.482015960000012],[-42.598468079999975,-19.481652],[-42.59818008000002,-19.48130397],[-42.597722159999989,-19.481022989999985],[-42.597311040000022,-19.480812029999981],[-42.596949960000018,-19.48053303],[-42.59653992,-19.480275],[-42.596155080000017,-19.479925980000019],[-42.59586816,-19.479531959999974],[-42.595606079999982,-19.479115980000017],[-42.595464960000015,-19.478630969999983],[-42.59537208,-19.47819204000001],[-42.59538396,-19.477133009999989],[-42.595461,-19.47665096999998],[-42.595515,-19.47616803],[-42.595616880000023,-19.475708039999972],[-42.59579292,-19.47515697],[-42.59589408,-19.47472101],[-42.596021160000021,-19.47423798],[-42.596147159999987,-19.47377898000002],[-42.59627316000001,-19.473343020000016],[-42.59642292,-19.47290697],[-42.596427960000028,-19.4724],[-42.596408880000013,-19.47191697],[-42.596364960000017,-19.471433040000022],[-42.596298,-19.470949019999978],[-42.596064,-19.47007197],[-42.595948080000028,-19.469586960000015],[-42.595782840000027,-19.469124990000012],[-42.595689960000016,-19.468686960000014],[-42.59559816,-19.46820204],[-42.595578,-19.467765],[-42.595558919999974,-19.46728098],[-42.59532708,-19.466265959999987],[-42.595332120000023,-19.465758989999983],[-42.595435080000016,-19.465254],[-42.59560896,-19.464818040000011],[-42.595832159999986,-19.464406020000013],[-42.596127,-19.46403999],[-42.596471160000021,-19.46367504],[-42.596862120000026,-19.463401980000015],[-42.59734884,-19.463246009999978],[-42.597835920000023,-19.46313504],[-42.598298880000016,-19.46295504],[-42.598737,-19.462797990000013],[-42.59878901864149,-19.462776653395636],[-42.598547778417142,-19.462643353970289],[-42.597353802518391,-19.462246616964656],[-42.596144567765833,-19.462080668905859],[-42.594927702988279,-19.462145509861305],[-42.593928273798369,-19.462677651654261],[-42.592883066234236,-19.462921784645456],[-42.591052049097364,-19.463074358598426],[-42.590025915758247,-19.462916041396145],[-42.589037929302989,-19.462011951580507],[-42.588168195018191,-19.461111678188551],[-42.587542596716126,-19.460280070405197],[-42.58692462762243,-19.459217674404563],[-42.586608014155772,-19.458284978806329],[-42.586291401459214,-19.457293157105315],[-42.586642345936184,-19.456329950240345],[-42.586695750741299,-19.455296169032184],[-42.587351864304352,-19.454289094889884],[-42.587908798198853,-19.452873848362838],[-42.588397069249162,-19.451628355258517],[-42.588812862737882,-19.450609835950452],[-42.589755073831959,-19.450016658773873],[-42.59047985091977,-19.448839832378649],[-42.59097575114172,-19.447420769892474],[-42.591628050785793,-19.446528137736152],[-42.592459637008652,-19.445700356055465],[-42.594000743934451,-19.445305548403734],[-42.595229050405308,-19.445011826556431],[-42.596457357911547,-19.444775326028751],[-42.597555968276147,-19.44470666919883],[-42.599333581226688,-19.444378619899773],[-42.600863242263117,-19.444214600454121],[-42.602213617395712,-19.443924695276291],[-42.603522031677016,-19.443346780479462],[-42.6045138317347,-19.44292907927214],[-42.605772656251382,-19.442061248319966],[-42.606016790024199,-19.440806216359018],[-42.606074008837595,-19.439657995965515],[-42.606001529677137,-19.438677620086157],[-42.605387376029427,-19.437558004822812],[-42.604826626639522,-19.436613863231621],[-42.604269691982857,-19.435612503046094],[-42.603155822452671,-19.434759909984574],[-42.60214876227991,-19.434256363161118],[-42.600836533937098,-19.433741368680042],[-42.599444198023043,-19.43362500982834],[-42.597994643369624,-19.433447613477984],[-42.596590863481929,-19.433562042687615],[-42.595587619424066,-19.434153311400433],[-42.594157137658875,-19.434782724097641],[-42.59286016784197,-19.435246198875983],[-42.591696709694752,-19.435427386530943],[-42.590598099577882,-19.435496042155055],[-42.589259168679199,-19.435553251476808],[-42.588229222236095,-19.435454061237223],[-42.586901734490397,-19.435282388973921],[-42.585688686012034,-19.435230880650259],[-42.584303979287299,-19.434885639279088],[-42.583354139871929,-19.43444121951212],[-42.582408114320906,-19.433941487686685],[-42.580912784072524,-19.433418861845421],[-42.579661590519372,-19.432962996169689],[-42.578528649038006,-19.432512851814433],[-42.577605510777872,-19.431496229550905],[-42.576628968600957,-19.43036134928516],[-42.575759235295237,-19.429461074681935],[-42.574855171691453,-19.428099221380467],[-42.57416854074512,-19.427265704738101],[-42.573123335825073,-19.426243358080935],[-42.572184939980396,-19.425570056212077],[-42.571059627286353,-19.424948252008711],[-42.569823692900599,-19.424147154921798],[-42.568717453050624,-19.423180121495975],[-42.567805760433927,-19.42199183558143],[-42.566825403003293,-19.420856955550732],[-42.566264655670743,-19.419912813426187],[-42.565478844721305,-19.418613904011163],[-42.564757882807392,-19.417202459736295],[-42.564330645715025,-19.416033252418867],[-42.564075067347019,-19.415045244965953],[-42.563701234304617,-19.414049605903688],[-42.563457100148689,-19.412832715768722],[-42.563209149442109,-19.411671138577134],[-42.562896351570672,-19.410622094357517],[-42.562526335166275,-19.409571143143115],[-42.56245385703258,-19.408531637932104],[-42.562633144798937,-19.407389138409446],[-42.562598814091785,-19.405661080502274],[-42.562251684211098,-19.40409323868645],[-42.562240240406382,-19.403057547936314],[-42.562244056449522,-19.401733850231629],[-42.562293176320765,-19.400763712864403],[-42.562063079999973,-19.400819039999988]]]]}},
{"type":"Feature","properties":{"ogc_fid":3224,"objectid_1":3559,"um_sequenc":"PVd4","shape_leng":2.1454023447499999,"shape_area":0.040788488523299998,"legenda":"Argissolo vermelho distrófico"},"geometry":{"type":"MultiPolygon","coordinates":[[[[-42.579617040000016,-19.397463029999983],[-42.579155160000028,-19.397528009999974],[-42.57869291999998,-19.39761504],[-42.578254080000022,-19.39779504],[-42.577791839999975,-19.39797504],[-42.577353,-19.398177990000022],[-42.576865919999989,-19.39828896],[-42.576381,-19.39828401],[-42.575946120000026,-19.398096],[-42.57546192,-19.397952990000022],[-42.57528084,-19.397888009999974],[-42.575002919999974,-19.39778802],[-42.574592880000012,-19.397576969999989],[-42.574133159999974,-19.39743396],[-42.573723840000014,-19.39717701],[-42.57331416,-19.396897019999983],[-42.572809080000013,-19.396501020000017],[-42.57240012,-19.396197],[-42.571990079999978,-19.395939960000021],[-42.57153,-19.39582098],[-42.571044,-19.395908010000028],[-42.570651960000021,-19.396226969999987],[-42.57028512,-19.396546020000017],[-42.56994096,-19.39693401],[-42.56959788,-19.39723002],[-42.569229959999973,-19.397618009999974],[-42.56888687999998,-19.397982959999979],[-42.568446960000017,-19.398323969999979],[-42.56766396,-19.39886901],[-42.567225119999989,-19.399118040000019],[-42.56681004,-19.399367970000014],[-42.566346,-19.39963896],[-42.564957119999974,-19.40017896],[-42.56447112,-19.400311980000026],[-42.56395992,-19.400423040000021],[-42.56349696,-19.40057901],[-42.56298684,-19.40064399],[-42.562524960000019,-19.40070798],[-42.562293176320765,-19.400763712864403],[-42.562244056449522,-19.401733850231629],[-42.562240240406382,-19.403057547936314],[-42.562251684211098,-19.40409323868645],[-42.562598814091785,-19.405661080502274],[-42.562633144798937,-19.407389138409446],[-42.56245385703258,-19.408531637932104],[-42.562526335166275,-19.409571143143115],[-42.562896351570672,-19.410622094357517],[-42.563209149442109,-19.411671138577134],[-42.563457100148689,-19.412832715768722],[-42.563701234304617,-19.414049605903688],[-42.564075067347019,-19.415045244965953],[-42.564330645715025,-19.416033252418867],[-42.564757882807392,-19.417202459736295],[-42.565478844721305,-19.418613904011163],[-42.566264655670743,-19.419912813426187],[-42.566825403003293,-19.420856955550732],[-42.567805760433927,-19.42199183558143],[-42.568717453050624,-19.423180121495975],[-42.569823692900599,-19.424147154921798],[-42.571059627286353,-19.424948252008711],[-42.572184939980396,-19.425570056212077],[-42.573123335825073,-19.426243358080935],[-42.57416854074512,-19.427265704738101],[-42.574855171691453,-19.428099221380467],[-42.575759235295237,-19.429461074681935],[-42.576628968600957,-19.43036134928516],[-42.577605510777872,-19.431496229550905],[-42.578528649038006,-19.432512851814433],[-42.579661590519372,-19.432962996169689],[-42.580912784072524,-19.433418861845421],[-42.582408114320906,-19.433941487686685],[-42.583354139871929,-19.43444121951212],[-42.584303979287299,-19.434885639279088],[-42.585688686012034,-19.435230880650259],[-42.586901734490397,-19.435282388973921],[-42.588229222236095,-19.435454061237223],[-42.589259168679199,-19.435553251476808],[-42.590598099577882,-19.435496042155055],[-42.591696709694752,-19.435427386530943],[-42.59286016784197,-19.435246198875983],[-42.594157137658875,-19.434782724097641],[-42.595587619424066,-19.434153311400433],[-42.596590863481929,-19.433562042687615],[-42.597994643369624,-19.433447613477984],[-42.599444198023043,-19.43362500982834],[-42.600836533937098,-19.433741368680042],[-42.60214876227991,-19.434256363161118],[-42.603155822452671,-19.434759909984574],[-42.604269691982857,-19.435612503046094],[-42.604826626639522,-19.436613863231621],[-42.605387376029427,-19.437558004822812],[-42.606001529677137,-19.438677620086157],[-42.606074008837595,-19.439657995965515],[-42.606016790024199,-19.440806216359018],[-42.605772656251382,-19.442061248319966],[-42.6045138317347,-19.44292907927214],[-42.603522031677016,-19.443346780479462],[-42.602213617395712,-19.443924695276291],[-42.600863242263117,-19.444214600454121],[-42.599333581226688,-19.444378619899773],[-42.597555968276147,-19.44470666919883],[-42.596457357911547,-19.444775326028751],[-42.595229050405308,-19.445011826556431],[-42.594000743934451,-19.445305548403734],[-42.592459637008652,-19.445700356055465],[-42.591628050785793,-19.446528137736152],[-42.59097575114172,-19.447420769892474],[-42.59047985091977,-19.448839832378649],[-42.589755073831959,-19.450016658773873],[-42.588812862737882,-19.450609835950452],[-42.588397069249162,-19.451628355258517],[-42.587908798198853,-19.452873848362838],[-42.587351864304352,-19.454289094889884],[-42.586695750741299,-19.455296169032184],[-42.586642345936184,-19.456329950240345],[-42.586291401459214,-19.457293157105315],[-42.586608014155772,-19.458284978806329],[-42.58692462762243,-19.459217674404563],[-42.587542596716126,-19.460280070405197],[-42.588168195018191,-19.461111678188551],[-42.589037929302989,-19.462011951580507],[-42.590025915758247,-19.462916041396145],[-42.591052049097364,-19.463074358598426],[-42.592883066234236,-19.462921784645456],[-42.593928273798369,-19.462677651654261],[-42.594927702988279,-19.462145509861305],[-42.596144567765833,-19.462080668905859],[-42.597353802518391,-19.462246616964656],[-42.598547778417142,-19.462643353970289],[-42.59878901864149,-19.462776653395636],[-42.599175839999987,-19.462617990000012],[-42.59961504,-19.462392],[-42.600053880000019,-19.462212],[-42.60047004,-19.46189403],[-42.600885839999989,-19.46159802],[-42.60139596,-19.461580019999985],[-42.601905,-19.461630959999979],[-42.60238992,-19.46163501],[-42.602875919999974,-19.461593970000024],[-42.603386039999975,-19.461575970000013],[-42.60387312,-19.461465],[-42.604359839999972,-19.461330990000022],[-42.604871039999978,-19.461151980000011],[-42.60531096,-19.46090304],[-42.605750160000014,-19.460630970000011],[-42.60609396000001,-19.46031102],[-42.60643596,-19.46001501],[-42.606875880000018,-19.459789020000017],[-42.60729204,-19.459448010000017],[-42.607683,-19.45917504],[-42.60802608,-19.458855990000018],[-42.608392919999972,-19.458559980000018],[-42.60883284,-19.458333990000028],[-42.609295079999981,-19.45817703],[-42.60978216,-19.45806696],[-42.610267080000028,-19.458071010000026],[-42.610776120000025,-19.45814499],[-42.61123584,-19.45830996],[-42.611792040000012,-19.458477],[-42.612276959999974,-19.458595979999984],[-42.612737040000013,-19.45866996],[-42.613801920000014,-19.458933030000026],[-42.61430916,-19.45919097],[-42.614768879999986,-19.45933299],[-42.615276839999979,-19.459545030000015],[-42.61575996,-19.459710990000019],[-42.61631688,-19.459877039999981],[-42.61682484,-19.45999701],[-42.61733388,-19.46007099000002],[-42.617844,-19.46009799],[-42.618449880000014,-19.460196],[-42.61898412,-19.460201040000015],[-42.61954212,-19.46022903],[-42.62005008,-19.460372039999982],[-42.620510159999981,-19.460513970000022],[-42.620994,-19.46058804],[-42.621410159999982,-19.460339009999984],[-42.621631920000027,-19.459926],[-42.62180688,-19.459467],[-42.62210316,-19.459009980000019],[-42.622203959999979,-19.458573030000025],[-42.622620120000022,-19.458300959999974],[-42.623253,-19.458075959999974],[-42.62369184,-19.457919],[-42.62413104,-19.457669969999984],[-42.624594,-19.457535959999973],[-42.625008,-19.457333010000013],[-42.625424160000023,-19.457060039999988],[-42.625863,-19.456857],[-42.62630184,-19.456631010000024],[-42.626862,-19.456428959999982],[-42.627349079999988,-19.456341029999976],[-42.62790708,-19.456323030000021],[-42.62841612,-19.456373970000016],[-42.628876919999982,-19.456424009999978],[-42.629339159999972,-19.456405019999977],[-42.62982516,-19.45631799],[-42.630384960000015,-19.45613898],[-42.630968880000012,-19.456005960000027],[-42.631480080000017,-19.455873030000021],[-42.63180011999998,-19.45543797],[-42.631949879999979,-19.455002009999987],[-42.632101079999984,-19.454451029999973],[-42.63217884,-19.45399104],[-42.632208,-19.453554],[-42.632262,-19.45300203],[-42.632265959999984,-19.452540960000022],[-42.632417159999989,-19.452059010000028],[-42.63249919934713,-19.451864145318865],[-42.631895176209184,-19.450987824662345],[-42.630388401059768,-19.449486734039624],[-42.629305047536469,-19.448060032383729],[-42.62839716609048,-19.446755403108178],[-42.627721977305669,-19.445633879158503],[-42.627115451383709,-19.444399822351446],[-42.626745431858232,-19.443291653297276],[-42.626444074978153,-19.442013730166771],[-42.626188493983655,-19.441023817377808],[-42.625932913907775,-19.440035811138397],[-42.626173233449499,-19.438895222448988],[-42.626939970641693,-19.438120846874611],[-42.626941165820853,-19.438119813559542],[-42.626957496330704,-19.43810332097091],[-42.628024232835351,-19.437181697504236],[-42.628671804724256,-19.436295533595946],[-42.628686372596036,-19.436282055529635],[-42.628689329512376,-19.436278008593511],[-42.62957382206919,-19.435459655177361],[-42.630655403427809,-19.434308097514712],[-42.631361106289326,-19.433589034643571],[-42.631784526708998,-19.432398855985198],[-42.632162172097161,-19.430918761367181],[-42.632238462358302,-19.429427219152998],[-42.632410119771599,-19.428399161726325],[-42.632463522236229,-19.427308162611926],[-42.63129243284849,-19.426451754709632],[-42.630346408477948,-19.42589480306043],[-42.62881293291138,-19.426175169596558],[-42.628046195780996,-19.426890417033128],[-42.626802631629921,-19.427472146064527],[-42.625642987439456,-19.42753698601242],[-42.624452825918034,-19.427027714825886],[-42.623331327931076,-19.42634678300232],[-42.622545514978334,-19.425047876065612],[-42.622602733288815,-19.423899655395036],[-42.62277438932248,-19.422928818937837],[-42.622907900290649,-19.42143918415319],[-42.622553138522228,-19.419985785219318],[-42.622087753938999,-19.418355002050923],[-42.622019089093016,-19.417315498823886],[-42.621721547951608,-19.415923134580684],[-42.621721546616371,-19.414713879118011],[-42.621595662846694,-19.413558027303161],[-42.621538441869063,-19.412289642718644],[-42.62146977795372,-19.411252046925632],[-42.62131337602235,-19.409518269845098],[-42.620882323370054,-19.408349064467416],[-42.620645815943234,-19.407015828347603],[-42.620397864498045,-19.405856161554521],[-42.619783711140499,-19.40479376472199],[-42.618440964327128,-19.403643624555531],[-42.617319467297804,-19.403021819608568],[-42.616300964595105,-19.402689932111539],[-42.615278647409781,-19.402474392758783],[-42.613771874207586,-19.40223786863146],[-42.612375725573038,-19.402178727895933],[-42.610945245413475,-19.402867265768815],[-42.609621574150765,-19.403790407473775],[-42.608605321924792,-19.404776335070938],[-42.607529618440928,-19.405869035423642],[-42.607528292862533,-19.405870105609488],[-42.607512093656908,-19.405886561320322],[-42.6065622555545,-19.406653304516418],[-42.605490348769919,-19.407412417021984],[-42.604417262537304,-19.408339527774036],[-42.60365778663401,-19.409159169802187],[-42.603655390877883,-19.409160367684667],[-42.603640261846813,-19.409176694803477],[-42.602579798893792,-19.409706927795725],[-42.60104632359738,-19.409930073409061],[-42.600046893504185,-19.409312084141849],[-42.598810957962883,-19.408453767682694],[-42.598013702195189,-19.40738564737384],[-42.597765751562655,-19.406281291791732],[-42.597632239993509,-19.405239878913761],[-42.597380475576209,-19.404194652035972],[-42.597075305385147,-19.403031169026868],[-42.59664806733543,-19.401804741405876],[-42.596148352068731,-19.400862507743433],[-42.594740759005589,-19.399824899416824],[-42.59323780074623,-19.399531153737911],[-42.592146821070813,-19.399485366470621],[-42.590941402982395,-19.399262196529349],[-42.589728355604237,-19.399210685945246],[-42.588564897604087,-19.399391873205008],[-42.587100085489205,-19.399502486466023],[-42.585764970395708,-19.399445252580815],[-42.583891994358794,-19.399195372211153],[-42.582804829298482,-19.399033238434285],[-42.581671889786037,-19.398640314243657],[-42.58048173060056,-19.398131042179106],[-42.579693691038216,-19.397456038586931],[-42.579617040000016,-19.397463029999983]]]]}},
{"type":"Feature","properties":{"ogc_fid":3356,"objectid_1":3703,"um_sequenc":"LVAd28","shape_leng":4.25984556523,"shape_area":0.16869390455700001,"legenda":"Latossolo vermelho-amarelo distrófico"},"geometry":{"type":"MultiPolygon","coordinates":[[[[-42.685013159999983,-19.368424979999986],[-42.684743159999982,-19.368813960000011],[-42.684256080000011,-19.368947970000022],[-42.68374596000001,-19.369059030000017],[-42.683284080000021,-19.36912401],[-42.68279808,-19.369188],[-42.682336920000012,-19.369230029999983],[-42.681825,-19.36943298],[-42.681339,-19.36956699000001],[-42.680900160000022,-19.36972404],[-42.68041416,-19.369835009999974],[-42.679976039999985,-19.36999197],[-42.67963296,-19.37033495999998],[-42.679361879999988,-19.370746979999979],[-42.67928483999998,-19.371184019999987],[-42.679158840000014,-19.371665969999981],[-42.67903284,-19.372124970000016],[-42.678956159999984,-19.372562010000024],[-42.67890288000001,-19.373045040000022],[-42.678923039999972,-19.37348298],[-42.679496879999988,-19.374317010000027],[-42.679806840000026,-19.37480301],[-42.68002212,-19.37521899],[-42.68028492000002,-19.375589970000021],[-42.680499119999979,-19.375983],[-42.68071404,-19.376399970000023],[-42.681025079999984,-19.37677104],[-42.681191039999987,-19.37718702],[-42.681429,-19.377672029999985],[-42.681423960000018,-19.378202040000019],[-42.68122488,-19.37861496],[-42.680977919999975,-19.379096010000012],[-42.68061108,-19.379460960000017],[-42.680364119999979,-19.37985003],[-42.68004516000002,-19.380193019999979],[-42.679630079999981,-19.380441959999985],[-42.67926288000001,-19.380762],[-42.67899288000001,-19.381150979999973],[-42.67855296,-19.38142296],[-42.67809,-19.381626],[-42.67760904,-19.381713030000014],[-42.677142839999988,-19.38173301],[-42.67667988,-19.381959],[-42.676360919999979,-19.38227796000001],[-42.67606716,-19.38262104],[-42.675819839999974,-19.383010019999972],[-42.675621120000017,-19.383491970000023],[-42.67542312,-19.383904980000011],[-42.675273,-19.384341029999973],[-42.675073919999988,-19.384868970000014],[-42.674924159999989,-19.385305019999976],[-42.674847119999981,-19.385741970000026],[-42.67467288,-19.386154980000015],[-42.674378040000022,-19.386520019999978],[-42.673988160000022,-19.386770039999988],[-42.67354896,-19.386927],[-42.673086,-19.38715299],[-42.672575880000011,-19.387195019999979],[-42.67204307999998,-19.387121040000011],[-42.671558160000018,-19.387094040000022],[-42.671097,-19.387135979999982],[-42.670586160000028,-19.387245959999973],[-42.67012391999998,-19.387403010000014],[-42.669732959999976,-19.387675979999983],[-42.66936504,-19.38804102],[-42.66906984000002,-19.388475990000018],[-42.66870192,-19.388887020000027],[-42.668334,-19.389251969999975],[-42.668039159999978,-19.389641040000015],[-42.667353,-19.390326029999983],[-42.667058160000011,-19.39071501],[-42.666690959999983,-19.391033970000024],[-42.66639612,-19.391375970000013],[-42.66619812,-19.39178898],[-42.666144840000015,-19.39227201],[-42.666212879999989,-19.392732990000013],[-42.666256079999982,-19.393263],[-42.66639684,-19.393702019999978],[-42.666464879999978,-19.394186040000022],[-42.66655812,-19.39462398],[-42.666553080000028,-19.39508496000002],[-42.666525,-19.395522],[-42.66642312,-19.395957959999976],[-42.66615312,-19.396323989999985],[-42.66569016,-19.396549979999975],[-42.66525492,-19.396361969999987],[-42.664794840000013,-19.39622004],[-42.664361040000017,-19.395986040000025],[-42.663853080000024,-19.39581999],[-42.66344304,-19.395585989999972],[-42.662982960000022,-19.395421020000015],[-42.662646,-19.39511898],[-42.662457,-19.39465701],[-42.66234,-19.394217990000016],[-42.662103119999983,-19.393662959999972],[-42.661937159999979,-19.393246980000015],[-42.66172296000002,-19.392807960000027],[-42.661362960000019,-19.39239],[-42.66102708,-19.39206501000001],[-42.660666,-19.391761980000012],[-42.660255959999972,-19.391481989999988],[-42.65984592,-19.39122504],[-42.659461080000028,-19.390946040000017],[-42.65900316,-19.390664969999989],[-42.658544880000022,-19.39036203],[-42.658111080000026,-19.390082039999982],[-42.65770104,-19.38980196],[-42.65734104,-19.389475979999986],[-42.65698104,-19.38908097],[-42.656595840000023,-19.38870999],[-42.656163119999974,-19.388313989999972],[-42.655754160000015,-19.388034],[-42.65532,-19.387684980000017],[-42.655131,-19.387199969999983],[-42.65501508,-19.38671496],[-42.65484984,-19.386230039999987],[-42.654660120000017,-19.385767980000026],[-42.65449596000002,-19.385190990000012],[-42.65435484,-19.38472902],[-42.654141,-19.384335990000011],[-42.654024,-19.38387402],[-42.653882880000026,-19.38343599],[-42.65376587999998,-19.382950979999976],[-42.65369784,-19.38251304],[-42.653557079999985,-19.382028030000015],[-42.65336808,-19.38156597],[-42.65315496,-19.38105801],[-42.652989,-19.380618990000016],[-42.65279892,-19.380202020000013],[-42.65258508,-19.37973996],[-42.652323,-19.37932299],[-42.652036080000016,-19.37892897],[-42.651605159999974,-19.37828097],[-42.651244080000026,-19.37797803],[-42.650835840000013,-19.377583019999975],[-42.650524080000025,-19.377234989999977],[-42.65018784,-19.376885969999989],[-42.649876080000013,-19.37653803],[-42.649565040000027,-19.376144010000019],[-42.649277040000015,-19.37577303],[-42.64906284,-19.37538],[-42.648751080000011,-19.375055009999983],[-42.648216119999972,-19.37518803],[-42.647945040000025,-19.375577009999972],[-42.64774596,-19.376035020000018],[-42.647717160000013,-19.376496],[-42.647688,-19.376979029999973],[-42.647731920000012,-19.377416970000013],[-42.64780104,-19.377855],[-42.647796,-19.378360980000025],[-42.647645160000025,-19.37882097],[-42.647326920000012,-19.379140020000023],[-42.646840919999988,-19.379159010000023],[-42.64633188,-19.37915397],[-42.64587108,-19.379126970000016],[-42.645337919999974,-19.379098979999981],[-42.644853,-19.379095020000022],[-42.64431983999998,-19.37902104],[-42.64371288000001,-19.378991970000015],[-42.643204920000017,-19.378895039999975],[-42.642744119999975,-19.378868039999986],[-42.642282959999989,-19.37890998],[-42.641723879999972,-19.37901996],[-42.641260919999979,-19.379131019999988],[-42.64079904,-19.37926503],[-42.63912504000001,-19.37925],[-42.638591879999979,-19.379176019999989],[-42.63813216,-19.37907998999998],[-42.637600080000027,-19.37893698],[-42.637118040000018,-19.378656],[-42.636683160000018,-19.37846799],[-42.63627312,-19.37821104],[-42.635814840000023,-19.37795301],[-42.635355839999988,-19.377673019999975],[-42.634946879999973,-19.377369989999977],[-42.63456312,-19.376998019999974],[-42.63420312,-19.376533979999977],[-42.633628919999978,-19.375746030000016],[-42.63336684,-19.37532897],[-42.63307884,-19.374957989999984],[-42.63284088,-19.374564959999987],[-42.632577,-19.374193979999973],[-42.63224112,-19.373892029999979],[-42.631855920000021,-19.37354301],[-42.63144696,-19.373263020000024],[-42.631035839999981,-19.37305197],[-42.630602039999985,-19.372862970000028],[-42.63009408,-19.372674959999983],[-42.62958684,-19.372439970000016],[-42.62903208,-19.372112010000023],[-42.628695839999978,-19.371763980000026],[-42.627854160000027,-19.37111202],[-42.62742,-19.37085399],[-42.62700996,-19.370574],[-42.626576160000013,-19.370363039999972],[-42.626140920000012,-19.37019798],[-42.625680120000027,-19.370170980000012],[-42.62524092000001,-19.370350980000012],[-42.624874079999984,-19.370646990000012],[-42.624555840000028,-19.37098899],[-42.62430816,-19.371493980000025],[-42.62408496,-19.371951990000014],[-42.623911080000028,-19.372365],[-42.62378508,-19.372824],[-42.62363496,-19.373283],[-42.623461080000027,-19.37369601],[-42.623285039999985,-19.37422404],[-42.62318316,-19.37477601],[-42.62303304,-19.37521197],[-42.62280984,-19.37562399],[-42.622490879999987,-19.375943039999981],[-42.622173,-19.376286030000017],[-42.62187816,-19.376675009999985],[-42.62158188,-19.377132029999984],[-42.621285960000023,-19.377543960000025],[-42.620893920000015,-19.377954989999978],[-42.620550840000021,-19.37827404],[-42.620136839999986,-19.378476990000024],[-42.619650120000017,-19.37863404],[-42.619187880000027,-19.378675980000025],[-42.618678839999973,-19.378625039999974],[-42.618052079999984,-19.37832003],[-42.617715120000014,-19.378017989999989],[-42.61699404,-19.377366030000019],[-42.61655916,-19.377178019999974],[-42.61612392,-19.37701296],[-42.615664919999972,-19.376871030000018],[-42.615181080000013,-19.376750969999989],[-42.614574839999989,-19.376721990000021],[-42.614015040000027,-19.37692503],[-42.613553159999981,-19.377011970000012],[-42.61309092,-19.377077040000017],[-42.612606,-19.377096030000018],[-42.612144119999982,-19.377136979999989],[-42.611706,-19.37729502000002],[-42.611290919999988,-19.37752101],[-42.610899959999983,-19.37781702],[-42.61048488,-19.378089],[-42.610118039999975,-19.378385009999988],[-42.609774959999982,-19.378727009999977],[-42.60948012,-19.379093039999987],[-42.609184920000018,-19.379436030000022],[-42.60886596,-19.379754989999981],[-42.608499839999979,-19.38002796],[-42.608061,-19.38020796],[-42.607647,-19.380411],[-42.60718512,-19.380475980000028],[-42.60667608,-19.380471030000024],[-42.606190079999976,-19.380490020000025],[-42.60570408000001,-19.380554010000026],[-42.60521916,-19.38059604],[-42.60475692,-19.38066102],[-42.604224120000026,-19.380633030000013],[-42.603788880000025,-19.380467969999984],[-42.60330504,-19.38032496],[-42.602847119999979,-19.379975039999977],[-42.60246192,-19.379672009999979],[-42.60210192,-19.379347020000012],[-42.601766039999973,-19.37897496],[-42.601479120000022,-19.37860397999998],[-42.600805920000028,-19.377999],[-42.60042108,-19.37769597],[-42.600009960000023,-19.377485009999987],[-42.59959992,-19.37725101],[-42.59916612,-19.37703996],[-42.59873088,-19.376874989999976],[-42.59824704,-19.376709029999972],[-42.59778696,-19.376613],[-42.597327959999973,-19.376469989999975],[-42.59686788,-19.37635101],[-42.595873919999974,-19.376342009999973],[-42.595410959999981,-19.376476019999984],[-42.59499696,-19.37667897],[-42.59465388000001,-19.376998019999974],[-42.59411208,-19.377775980000024],[-42.593841,-19.378188],[-42.593643,-19.378600020000022],[-42.59346804,-19.37901303000001],[-42.593457960000023,-19.379979989999981],[-42.593550839999978,-19.38044097],[-42.593667120000021,-19.380903030000013],[-42.593879879999974,-19.38138804],[-42.594069960000013,-19.38180501],[-42.59426004,-19.38226698],[-42.594449039999972,-19.382682960000011],[-42.59459016,-19.383191010000019],[-42.59475504,-19.38363003],[-42.594896160000019,-19.384068959999979],[-42.595059960000015,-19.384623],[-42.595152120000023,-19.38508398],[-42.59522088,-19.385522009999988],[-42.595337159999985,-19.386007020000022],[-42.595332120000023,-19.38648996],[-42.595350119999978,-19.387043010000014],[-42.595224120000012,-19.387478970000018],[-42.595049879999976,-19.38791501999998],[-42.59480292,-19.388304],[-42.594629039999973,-19.38871701],[-42.59457612,-19.389177],[-42.59457107999998,-19.389660030000016],[-42.594615,-19.39009797],[-42.59495088,-19.390470030000017],[-42.59523816,-19.390841009999974],[-42.59554992,-19.391189039999972],[-42.595350839999981,-19.39169403],[-42.59524896,-19.392153029999974],[-42.59502612,-19.392588],[-42.594730920000018,-19.392976980000014],[-42.594315119999976,-19.39324896],[-42.59385396,-19.393290990000025],[-42.59339208,-19.39337901],[-42.59288016,-19.39365],[-42.592511880000018,-19.394037990000015],[-42.59233691999998,-19.394474039999977],[-42.592212,-19.39491],[-42.592061160000014,-19.39534704],[-42.59193516,-19.395828989999984],[-42.591760920000013,-19.396242],[-42.59141784000002,-19.396560959999988],[-42.591075120000028,-19.396856969999988],[-42.590635920000011,-19.397060010000018],[-42.59012508,-19.397193029999983],[-42.589663920000021,-19.397258009999973],[-42.589128959999982,-19.39739103],[-42.588690120000024,-19.397547990000021],[-42.588228959999981,-19.39759002],[-42.587669880000021,-19.39765401],[-42.587160120000021,-19.397694960000024],[-42.58667484,-19.397690010000019],[-42.586189919999981,-19.397663009999974],[-42.585631920000026,-19.397611980000022],[-42.585171839999987,-19.397583989999987],[-42.584613839999975,-19.397532959999978],[-42.584056920000023,-19.39745898000001],[-42.583572,-19.39745403],[-42.583110840000018,-19.397403989999987],[-42.582141,-19.39739499],[-42.581655,-19.397412990000021],[-42.581144880000011,-19.39745403],[-42.580685159999973,-19.397427030000017],[-42.58007784,-19.397421],[-42.579728020449259,-19.397452907369168],[-42.580499255393129,-19.398113516271852],[-42.5816894145783,-19.398622789236097],[-42.582822354090418,-19.399015713427133],[-42.58390952004963,-19.39917784720452],[-42.585782495186514,-19.399427727575059],[-42.587117610279449,-19.399484960561647],[-42.588582422393635,-19.399374348200816],[-42.589745880393181,-19.399193160941799],[-42.590958927770828,-19.399244671526532],[-42.592164345858805,-19.399467841468347],[-42.593255325533768,-19.399513628736205],[-42.594758283792594,-19.399807374415783],[-42.596165876855565,-19.400844982742598],[-42.596665593021832,-19.401787215505479],[-42.597092830172528,-19.40301364402535],[-42.597398000363974,-19.404177126134663],[-42.597649765680934,-19.405222353911345],[-42.597783277250485,-19.406263766788818],[-42.598031226984091,-19.407368122370446],[-42.598828482751905,-19.408436242679151],[-42.600064419192343,-19.40929455913852],[-42.601063849285367,-19.409912548405941],[-42.602597323681699,-19.409689402793564],[-42.603655390877883,-19.409160367684667],[-42.60365778663401,-19.409159169802187],[-42.604417262537304,-19.408339527774036],[-42.604428338394079,-19.408327574938738],[-42.605507874454823,-19.407394892022687],[-42.606579780339288,-19.406635779518115],[-42.607528292862533,-19.405870105609488],[-42.607529618440928,-19.405869035423642],[-42.608605321924792,-19.404776335070938],[-42.608616783583798,-19.404764692507886],[-42.609639099832229,-19.403772882478727],[-42.610962770194639,-19.402849740774993],[-42.612393250353257,-19.402161202003899],[-42.613789399886521,-19.402220342740225],[-42.615296172188849,-19.402456867767555],[-42.616318489373811,-19.402672406221431],[-42.617336992076211,-19.40300429461816],[-42.618458489105315,-19.403626099565393],[-42.619801235918651,-19.404776239731962],[-42.620415390175644,-19.405838635664932],[-42.620663340721933,-19.406998303356826],[-42.620899848149236,-19.408331539476038],[-42.621330900801865,-19.409500744853315],[-42.621487302733932,-19.411234521932986],[-42.621555966649701,-19.412272117725468],[-42.621613187627872,-19.413540502309317],[-42.621739071398004,-19.414696353224283],[-42.621739072733781,-19.415905609585558],[-42.622036613875679,-19.417297973828155],[-42.622105278722088,-19.418337477054717],[-42.622570664205142,-19.419968260222483],[-42.62292542507474,-19.421421658256421],[-42.622791914107296,-19.422911293939499],[-42.622620258074129,-19.423882129496754],[-42.622563039764188,-19.425030350166665],[-42.623348852717157,-19.426329258002411],[-42.624470350703916,-19.42701018982622],[-42.625660513124345,-19.427519461013134],[-42.626820156414965,-19.427454621065852],[-42.62806372056523,-19.426872892035512],[-42.628830457694953,-19.426157644599755],[-42.630363933260718,-19.425877278064622],[-42.631309958530395,-19.42643422971404],[-42.632481047018686,-19.427290637616501],[-42.632427644554561,-19.428381636730276],[-42.632255987141797,-19.429409693256968],[-42.632179696881359,-19.430901235470291],[-42.631802052393375,-19.432381330087296],[-42.631378631974357,-19.433571509644104],[-42.630672928214167,-19.43429057161514],[-42.629581949104903,-19.43545213598701],[-42.62957382206919,-19.435459655177361],[-42.628689329512376,-19.436278008593511],[-42.628686372596036,-19.436282055529635],[-42.628037031773765,-19.437170639505084],[-42.628024232835351,-19.437181697504236],[-42.626957496330704,-19.43810332097091],[-42.626941165820853,-19.438119813559542],[-42.626190759139249,-19.438877696544445],[-42.625950439598078,-19.440018286132414],[-42.626206018774973,-19.441006291472092],[-42.626461599769804,-19.441996205159981],[-42.62676295665031,-19.44327412828995],[-42.627132976176121,-19.444382297343715],[-42.627739502098358,-19.445616354150427],[-42.628414690883361,-19.446737877200537],[-42.629322572329528,-19.448042507375131],[-42.630405925852983,-19.449469209030894],[-42.631912701901697,-19.450970299653626],[-42.632510425067196,-19.451837481328507],[-42.632591040000023,-19.451646],[-42.632692920000011,-19.451163959999974],[-42.632867159999989,-19.45075104],[-42.63306588,-19.450292040000022],[-42.633361079999986,-19.449903959999972],[-42.63375312,-19.449585],[-42.634095839999986,-19.449288990000014],[-42.63453504,-19.44903897],[-42.634974960000022,-19.448766990000024],[-42.635486879999974,-19.44856503],[-42.63631596,-19.44815796],[-42.63675516,-19.447955009999987],[-42.637192920000018,-19.44779796],[-42.637655880000011,-19.447641],[-42.63811812,-19.44759897],[-42.639185160000011,-19.447608960000025],[-42.63964596,-19.447659],[-42.640155,-19.44775503],[-42.640688880000027,-19.44775998],[-42.641150040000014,-19.447719029999973],[-42.64163603999998,-19.447700039999972],[-42.64212096,-19.447704],[-42.642608040000027,-19.44759402],[-42.643071,-19.44741402],[-42.643533960000013,-19.447256970000012],[-42.64445808,-19.447081019999985],[-42.644919959999982,-19.44701604],[-42.64540488,-19.44702099],[-42.645866039999987,-19.447047989999987],[-42.64635096,-19.447120980000022],[-42.646811039999989,-19.44719397],[-42.647271120000028,-19.44729099],[-42.647852880000016,-19.44734202],[-42.64831404,-19.447415009999986],[-42.648798960000022,-19.44741996],[-42.649308,-19.44751599],[-42.649792919999982,-19.447521030000019],[-42.65027784,-19.44754803],[-42.650811,-19.44769104],[-42.65129592,-19.447719029999973],[-42.651780840000015,-19.447722989999988],[-42.65231508,-19.447796970000013],[-42.652775159999976,-19.44782397],[-42.653283839999972,-19.44792099],[-42.65376984,-19.447925039999973],[-42.654255840000019,-19.44783801],[-42.65462412,-19.447403039999983],[-42.654944160000014,-19.447038],[-42.655335120000018,-19.44671904],[-42.655701959999988,-19.44642303],[-42.655997160000027,-19.446081030000016],[-42.65636508,-19.445691959999976],[-42.656757840000012,-19.44523503],[-42.657027840000012,-19.444869989999972],[-42.657372,-19.44450396000002],[-42.657764040000018,-19.444139010000015],[-42.65822304,-19.444304970000019],[-42.658535159999985,-19.444653],[-42.65882208,-19.44506997000002],[-42.659085960000027,-19.44544104],[-42.659447039999975,-19.445742989999985],[-42.65980811999998,-19.44602298],[-42.660267840000017,-19.446119010000018],[-42.660776880000014,-19.446238979999976],[-42.661261079999974,-19.446311970000011],[-42.66179388,-19.446478019999972],[-42.662278080000021,-19.446621030000017],[-42.662760839999976,-19.44685503],[-42.663195,-19.447135020000019],[-42.663556079999978,-19.447415009999986],[-42.66396612,-19.447695],[-42.664350959999979,-19.44799803],[-42.66468792,-19.44834597],[-42.66519516,-19.448604],[-42.665653080000027,-19.44886104],[-42.666087960000027,-19.44911897999998],[-42.66654696,-19.449352980000015],[-42.667007039999987,-19.44942597],[-42.667539120000015,-19.44963801],[-42.667949159999978,-19.44989496],[-42.66828504,-19.45024299],[-42.66857196,-19.45065996],[-42.668858880000016,-19.451099969999973],[-42.66907415999998,-19.45151703],[-42.669263160000014,-19.451955960000021],[-42.66945288,-19.45237203],[-42.669717119999973,-19.452765960000022],[-42.67012716,-19.453023],[-42.670586879999973,-19.45309599],[-42.671121840000012,-19.453032],[-42.67153584,-19.452827969999987],[-42.671952,-19.45253304],[-42.67244016,-19.452284010000028],[-42.67297584,-19.45208097],[-42.67348704,-19.451925],[-42.67399716,-19.451882969999986],[-42.674150160000011,-19.451886030000026],[-42.674483160000023,-19.45188801],[-42.674969159999989,-19.451845979999973],[-42.675334920000012,-19.45157301],[-42.67560708000002,-19.451115],[-42.675805079999975,-19.450701990000027],[-42.676027920000024,-19.450221030000023],[-42.67608192,-19.449692009999978],[-42.676062839999986,-19.449185039999975],[-42.675995160000014,-19.448701019999987],[-42.675757920000024,-19.448169029999974],[-42.675567839999985,-19.447660980000023],[-42.675402959999985,-19.447245],[-42.675140160000012,-19.446850980000022],[-42.674877,-19.446388019999972],[-42.67461384,-19.44601803],[-42.67452096,-19.445555969999987],[-42.67447812,-19.445049],[-42.674676840000018,-19.44459099],[-42.67497096,-19.444224959999985],[-42.675219,-19.443767040000012],[-42.675489,-19.44340101],[-42.67573704,-19.442850029999988],[-42.67583892,-19.44239103000001],[-42.67584396,-19.441907010000023],[-42.675801120000017,-19.441377],[-42.675684120000028,-19.44093897],[-42.67561608,-19.440455040000018],[-42.67554696000002,-19.439993969999989],[-42.67548,-19.439462970000022],[-42.675363,-19.439025029999982],[-42.67519812,-19.438516979999974],[-42.675251039999978,-19.438080029999981],[-42.675473160000024,-19.43766702],[-42.67581696000002,-19.437301979999972],[-42.67611216,-19.436889959999974],[-42.67645488,-19.436547959999984],[-42.67677384000001,-19.436228009999979],[-42.676971840000022,-19.435815989999981],[-42.676929,-19.435309019999977],[-42.676812,-19.43487],[-42.676525079999976,-19.434453029999986],[-42.676335,-19.43396802],[-42.676144920000013,-19.43355204],[-42.675882119999983,-19.433134979999977],[-42.67540512,-19.43234802],[-42.675462,-19.431428040000014],[-42.67547208000002,-19.430438040000013],[-42.675621840000019,-19.43000199],[-42.67567512,-19.429542],[-42.676043040000025,-19.429175970000017],[-42.67645812,-19.428903989999981],[-42.676968960000011,-19.42883901],[-42.67743012,-19.428820019999989],[-42.677915040000016,-19.428848010000024],[-42.678398879999975,-19.428944039999976],[-42.678956159999984,-19.42906401],[-42.67958796,-19.42902396],[-42.68014596,-19.429029],[-42.681066840000028,-19.429174980000028],[-42.681624119999981,-19.429226009999979],[-42.68206404,-19.429000019999989],[-42.68272212,-19.42863696],[-42.683185079999987,-19.42845696],[-42.683646959999976,-19.428415019999989],[-42.68396592,-19.428049980000026],[-42.683972040000015,-19.427451029999986],[-42.683905079999988,-19.426875030000019],[-42.683958,-19.426437990000011],[-42.68386512,-19.425953970000023],[-42.683870160000026,-19.42549299],[-42.68392308,-19.425056040000015],[-42.68395188,-19.424573010000017],[-42.68402892,-19.424089980000019],[-42.684105960000011,-19.423653030000025],[-42.684305040000027,-19.42321797],[-42.684405840000011,-19.42278102],[-42.68470104,-19.422392039999977],[-42.684995879999974,-19.422048959999984],[-42.685291080000013,-19.421638019999989],[-42.685610039999972,-19.42127198999998],[-42.685881839999979,-19.42081398],[-42.686152919999984,-19.42040196],[-42.68659284,-19.420083],[-42.687033120000024,-19.419741989999977],[-42.687473039999986,-19.419354],[-42.68791296,-19.419082020000019],[-42.688328039999988,-19.418855039999983],[-42.688815120000015,-19.418698979999988],[-42.689373120000027,-19.41870402],[-42.68985804,-19.41873102],[-42.690344040000014,-19.418643],[-42.690831119999984,-19.41848604],[-42.691340879999984,-19.418399009999973],[-42.691851,-19.41835698],[-42.692337,-19.418361030000028],[-42.69330684,-19.41841602],[-42.693768,-19.41846597],[-42.694229880000023,-19.418355],[-42.69464388,-19.418128019999983],[-42.695037,-19.417716989999974],[-42.695163,-19.41723503999998],[-42.69521592000001,-19.41677496],[-42.695172,-19.416337020000014],[-42.69515184,-19.41587604],[-42.695205840000028,-19.415347020000013],[-42.695161919999975,-19.41488604],[-42.69519,-19.414425960000017],[-42.69526811999998,-19.413943019999977],[-42.69541787999998,-19.413506970000014],[-42.695688959999984,-19.413095039999973],[-42.69593484,-19.41270597],[-42.696060839999973,-19.412246970000012],[-42.696016919999977,-19.411809029999972],[-42.695852039999977,-19.411254989999975],[-42.695637840000018,-19.410860969999987],[-42.69549708,-19.410354],[-42.69525804,-19.40995998],[-42.69509316,-19.40949801],[-42.69512088,-19.409060969999985],[-42.695199,-19.40857803],[-42.69527604000001,-19.40814099],[-42.695232120000014,-19.40770296],[-42.695091,-19.407173039999975],[-42.694877159999976,-19.406779019999988],[-42.694638119999979,-19.40638599],[-42.694301880000012,-19.406014019999986],[-42.69401388,-19.405643039999973],[-42.69377592,-19.405250009999975],[-42.693854040000019,-19.404675],[-42.694053119999978,-19.404192959999989],[-42.694227,-19.403780040000015],[-42.694617960000016,-19.403506979999975],[-42.69503196,-19.403304030000015],[-42.695494919999987,-19.403146979999974],[-42.695980920000011,-19.40305896000001],[-42.696465839999973,-19.403063009999983],[-42.696975959999975,-19.403045010000028],[-42.697437120000018,-19.403026020000027],[-42.697899,-19.40296103999998],[-42.698337120000019,-19.402803],[-42.698799,-19.40266899],[-42.69921408,-19.402443],[-42.69960504,-19.40214699],[-42.699852,-19.40175800999998],[-42.699930839999979,-19.401137010000014],[-42.699888,-19.40058396],[-42.69991607999998,-19.400146020000022],[-42.699969,-19.399662990000024],[-42.699900959999979,-19.399224960000026],[-42.699855959999979,-19.398787019999986],[-42.69993408,-19.39832802],[-42.70013208,-19.39791501000002],[-42.70047408,-19.397619],[-42.700937039999985,-19.397438009999973],[-42.701520959999982,-19.397328029999983],[-42.70200696,-19.397194019999972],[-42.70246884,-19.397106],[-42.70293288,-19.396834019999972],[-42.703275959999985,-19.39651497],[-42.70347612,-19.395848969999975],[-42.703675920000023,-19.39532103],[-42.703945920000024,-19.39490901],[-42.704337959999975,-19.39456701],[-42.704681040000025,-19.394225010000014],[-42.705001079999988,-19.39379004],[-42.705127080000011,-19.393284960000017],[-42.70527684000001,-19.392802019999976],[-42.705474840000022,-19.39236696],[-42.705600839999988,-19.39190696999998],[-42.70575204,-19.391401980000012],[-42.705878040000016,-19.390920030000018],[-42.70597884,-19.39048299000001],[-42.70599288,-19.38905496000001],[-42.70590108,-19.38854799],[-42.705759960000023,-19.38808602],[-42.70561812,-19.38764799],[-42.705550080000023,-19.38720996],[-42.705311040000026,-19.386770039999988],[-42.705073079999977,-19.386353970000016],[-42.704760959999987,-19.385958959999982],[-42.704352,-19.38561003],[-42.70401684,-19.385170019999975],[-42.703754039999978,-19.38473001],[-42.70341708,-19.38442797],[-42.703104960000019,-19.384102980000023],[-42.702647039999988,-19.383777],[-42.702237,-19.383497009999985],[-42.70178016,-19.383170039999982],[-42.701346,-19.38282102],[-42.70098492,-19.382518979999986],[-42.700600080000015,-19.38221604],[-42.70007016,-19.381866030000026],[-42.699660119999976,-19.38158604],[-42.69927492,-19.381237020000015],[-42.698889,-19.38098097],[-42.698455920000015,-19.380678030000013],[-42.69809412,-19.380398039999989],[-42.697226880000017,-19.37979198],[-42.69679308000002,-19.379511990000026],[-42.69638304,-19.37927799],[-42.69594816,-19.379043990000014],[-42.695465039999988,-19.37883204000002],[-42.694981919999975,-19.37866698],[-42.69452292,-19.378386990000024],[-42.694211880000012,-19.377969029999974],[-42.69404592,-19.37755404],[-42.693783119999978,-19.377136979999989],[-42.693373080000015,-19.37688003],[-42.692938920000017,-19.376668979999977],[-42.692406119999987,-19.376525969999989],[-42.691921920000027,-19.37643003],[-42.691438080000012,-19.376309970000023],[-42.69095316,-19.376282969999977],[-42.69049308000001,-19.37614104],[-42.689889,-19.37588202],[-42.689405879999981,-19.375716959999977],[-42.688971,-19.37548296],[-42.68846412,-19.375247969999975],[-42.687981,-19.375036019999982],[-42.687570960000016,-19.37475702],[-42.68716092,-19.37449998],[-42.68672712,-19.374265980000018],[-42.68636712,-19.373916959999974],[-42.686030159999973,-19.37356902],[-42.685620840000013,-19.37322],[-42.68528496,-19.37289402],[-42.684949080000024,-19.37254599],[-42.684514920000026,-19.37224296],[-42.684203159999981,-19.371917970000027],[-42.683964119999985,-19.371501],[-42.68396916,-19.37104101],[-42.684069959999988,-19.37060397],[-42.684147,-19.37016702],[-42.68441808,-19.369778040000028],[-42.684878159999982,-19.369874970000012],[-42.685338960000024,-19.369855980000011],[-42.685608960000025,-19.369490040000017],[-42.68566188,-19.369053],[-42.685497,-19.368613980000021],[-42.685191,-19.368153],[-42.685013159999983,-19.368424979999986]]]]}}
]
}
